[{"OBJECT_NAME":"STARLINK-31383","OBJECT_ID":"2024-027F","EPOCH":"2026-03-09T22:43:39.025344","MEAN_MOTION":15.30187158,"ECCENTRICITY":9.921e-5,"INCLINATION":53.1602,"RA_OF_ASC_NODE":308.7172,"ARG_OF_PERICENTER":88.3968,"MEAN_ANOMALY":271.7146,"EPHEMERIS_TYPE":0,"CLASSIFICATION_TYPE":"U","NORAD_CAT_ID":58936,"ELEMENT_SET_NO":999,"REV_AT_EPOCH":11736,"BSTAR":6.547498e-6,"MEAN_MOTION_DOT":-1.65e-6,"MEAN_MOTION_DDOT":0},{"OBJECT_NAME":"SL-3 R\/B","OBJECT_ID":"1982-027B","EPOCH":"2026-03-09T22:44:40.208640","MEAN_MOTION":15.28335844,"ECCENTRICITY":0.00065199,"INCLINATION":81.188,"RA_OF_ASC_NODE":37.4466,"ARG_OF_PERICENTER":276.581,"MEAN_ANOMALY":83.4683,"EPHEMERIS_TYPE":0,"CLASSIFICATION_TYPE":"U","NORAD_CAT_ID":13121,"ELEMENT_SET_NO":999,"REV_AT_EPOCH":39859,"BSTAR":0.00030526741,"MEAN_MOTION_DOT":8.453e-5,"MEAN_MOTION_DDOT":0}]
